{
  "type": "FeatureCollection",
  "crs": {
    "type": "name",
    "properties": {
      "name": "EPSG:4326"
    }
  },
  "features": [
    {
      "type": "Feature",
      "id": "surrey-2354",
      "properties": {
        "id": "surrey-2354",
        "physical_building_id": "surrey-2354",
        "name": "Wave Tower 1",
        "location": "13303 Central Avenue, Surrey",
        "surrey_objectid": 2354,
        "original_status": "In Service"
      },
      "geometry": {
        "type": "Polygon",
        "coordinates": [
          [
            [
              -122.854069956528,
              49.1910100778136
            ],
            [
              -122.853666521338,
              49.1910075173251
            ],
            [
              -122.853665052635,
              49.1908209857654
            ],
            [
              -122.853444735485,
              49.190817240509
            ],
            [
              -122.853446467252,
              49.1907360185434
            ],
            [
              -122.853665356667,
              49.1907351222005
            ],
            [
              -122.853664246003,
              49.1907184920401
            ],
            [
              -122.854077053153,
              49.1907241389801
            ],
            [
              -122.854069956528,
              49.1910100778136
            ]
          ]
        ]
      }
    },
    {
      "type": "Feature",
      "id": "surrey-132062",
      "properties": {
        "id": "surrey-132062",
        "physical_building_id": "surrey-132062",
        "name": "Ultra Tower (West Village Phase 3)",
        "location": "13325 102A Avenue, Surrey",
        "surrey_objectid": 132062,
        "original_status": "In Service"
      },
      "geometry": {
        "type": "Polygon",
        "coordinates": [
          [
            [
              -122.853434274381,
              49.1897604080957
            ],
            [
              -122.85342681606,
              49.1898707190818
            ],
            [
              -122.85342245954,
              49.1898968908446
            ],
            [
              -122.853399641815,
              49.1898949917557
            ],
            [
              -122.853398083277,
              49.189939866548
            ],
            [
              -122.853365279821,
              49.1899388893906
            ],
            [
              -122.853363784805,
              49.189962260042
            ],
            [
              -122.853151246926,
              49.1899629255125
            ],
            [
              -122.853148443481,
              49.1899460934963
            ],
            [
              -122.853102798308,
              49.189946035449
            ],
            [
              -122.853105784424,
              49.1899011624765
            ],
            [
              -122.853075824568,
              49.1899029944951
            ],
            [
              -122.853073543014,
              49.1897103981092
            ],
            [
              -122.853102058837,
              49.1897141746382
            ],
            [
              -122.853103639777,
              49.189661821164
            ],
            [
              -122.853146438361,
              49.1896600054637
            ],
            [
              -122.853142203468,
              49.1896450417543
            ],
            [
              -122.853370421055,
              49.1896472018503
            ],
            [
              -122.85336752914,
              49.1896602863754
            ],
            [
              -122.853414594458,
              49.1896622162485
            ],
            [
              -122.853411603113,
              49.1897089584526
            ],
            [
              -122.853434423517,
              49.1897099220289
            ],
            [
              -122.853434274381,
              49.1897604080957
            ]
          ]
        ]
      }
    }
  ]
}
